NORAD_CAT_ID,OBJECT_NAME,OBJECT_TYPE,EPOCH,MEAN_MOTION,ECCENTRICITY,INCLINATION,RA_OF_ASC_NODE,ARG_OF_PERICENTER,MEAN_ANOMALY,BSTAR,MEAN_MOTION_DOT,MEAN_MOTION_DDOT,TLE_LINE0,TLE_LINE1,TLE_LINE2,SEMIMAJOR_AXIS,PERIOD,APOGEE,PERIGEE,DECAYED
54775.0,STARLINK-5465,PAYLOAD,2023-10-29 07:48:43,15.08856749,0.0001655,53.2159,315.2607,89.1228,270.9953,0.00047692,7.314e-05,0.0,0 STARLINK-5465,1 54775U 22175T   23302.32550914  .00007314  00000-0  47692-3 0  9990,2 54775  53.2159 315.2607 0001655  89.1228 270.9953 15.08856749 49737,6917.829,95.436,540.839,538.549,0.0
54775.0,STARLINK-5465,PAYLOAD,2023-10-30 04:28:45,15.08845842,0.0001999,53.2166,311.3946,107.113,253.0081,0.0001969,2.847e-05,0.0,0 STARLINK-5465,1 54775U 22175T   23303.18663318  .00002847  00000-0  19690-3 0  9991,2 54775  53.2166 311.3946 0001999 107.1130 253.0081 15.08845842 47703,6917.863,95.437,541.11,538.345,0.0
54775.0,STARLINK-5465,PAYLOAD,2023-10-30 17:11:50,15.08840688,0.0001516,53.2154,309.0172,92.6647,267.4519,0.00010787,1.429e-05,0.0,0 STARLINK-5465,1 54775U 22175T   23303.71655507  .00001429  00000-0  10787-3 0  9994,2 54775  53.2154 309.0172 0001516  92.6647 267.4519 15.08840688 49947,6917.878,95.438,540.792,538.695,0.0
54775.0,STARLINK-5465,PAYLOAD,2023-10-31 04:19:32,15.0883023,0.0001663,53.2167,306.9372,96.4867,263.6314,-0.00015771,-2.796e-05,0.0,0 STARLINK-5465,1 54775U 22175T   23304.18024110 -.00002796  00000-0 -15771-3 0  9994,2 54775  53.2167 306.9372 0001663  96.4867 263.6314 15.08830230 47859,6917.91,95.438,540.926,538.625,0.0
54775.0,STARLINK-5465,PAYLOAD,2023-10-31 07:30:19,15.08831723,0.0001664,53.2169,306.3428,96.4458,263.6723,-0.00010975,-2.034e-05,0.0,0 STARLINK-5465,1 54775U 22175T   23304.31272244 -.00002034  00000-0 -10975-3 0  9998,2 54775  53.2169 306.3428 0001664  96.4458 263.6723 15.08831723 50030,6917.906,95.438,540.922,538.62,0.0
54775.0,STARLINK-5465,PAYLOAD,2023-10-31 17:02:38,15.08834652,0.0001922,53.2185,304.5582,96.0518,264.0693,-3.4902e-05,-8.44e-06,0.0,0 STARLINK-5465,1 54775U 22175T   23304.71016241 -.00000844  00000-0 -34902-4 0  9999,2 54775  53.2185 304.5582 0001922  96.0518 264.0693 15.08834652 50090,6917.897,95.438,541.091,538.432,0.0
54775.0,STARLINK-5465,PAYLOAD,2023-11-01 04:10:19,15.08841942,0.0001788,53.2175,302.4758,98.3182,261.8013,0.0001902,2.74e-05,0.0,0 STARLINK-5465,1 54775U 22175T   23305.17384081  .00002740  00000-0  19020-3 0  9998,2 54775  53.2175 302.4758 0001788  98.3182 261.8013 15.08841942 48002,6917.874,95.437,540.976,538.503,0.0
54775.0,STARLINK-5465,PAYLOAD,2023-11-01 08:56:28,15.08849435,0.000171,53.2169,301.5833,94.9538,265.1649,0.00029973,4.487e-05,0.0,0 STARLINK-5465,1 54775U 22175T   23305.37255763  .00004487  00000-0  29973-3 0  9992,2 54775  53.2169 301.5833 0001710  94.9538 265.1649 15.08849435 50191,6917.852,95.437,540.9,538.534,0.0
54775.0,STARLINK-5465,PAYLOAD,2023-11-01 16:53:25,15.08842296,0.0002028,53.2176,300.0975,86.2713,273.8512,0.0001965,2.841e-05,0.0,0 STARLINK-5465,1 54775U 22175T   23305.70376209  .00002841  00000-0  19650-3 0  9991,2 54775  53.2176 300.0975 0002028  86.2713 273.8512 15.08842296 50241,6917.873,95.437,541.141,538.335,0.0
54775.0,STARLINK-5465,PAYLOAD,2023-11-02 04:01:07,15.08837704,0.00017,53.2166,298.0147,84.3795,275.7391,0.00017812,2.548e-05,0.0,0 STARLINK-5465,1 54775U 22175T   23306.16744500  .00002548  00000-0  17812-3 0  9997,2 54775  53.2166 298.0147 0001700  84.3795 275.7391 15.08837704 48153,6917.887,95.438,540.928,538.576,0.0
54775.0,STARLINK-5465,PAYLOAD,2023-11-02 08:47:16,15.08846145,0.0001824,53.2166,297.122,82.7252,277.3947,0.00023331,3.428e-05,0.0,0 STARLINK-5465,1 54775U 22175T   23306.36616121  .00003428  00000-0  23331-3 0  9997,2 54775  53.2166 297.1220 0001824  82.7252 277.3947 15.08846145 50340,6917.862,95.437,540.988,538.465,0.0
54775.0,STARLINK-5465,PAYLOAD,2023-11-02 16:44:12,15.08840736,0.0001704,53.2162,295.6342,90.1328,269.9859,6.592e-05,7.61e-06,0.0,0 STARLINK-5465,1 54775U 22175T   23306.69736200  .00000761  00000-0  65920-4 0  9992,2 54775  53.2162 295.6342 0001704  90.1328 269.9859 15.08840736 50392,6917.878,95.438,540.922,538.564,0.0
54775.0,STARLINK-5465,PAYLOAD,2023-11-03 05:27:17,15.08841903,0.0001523,53.217,293.2562,92.9995,267.1171,6.7024e-05,7.79e-06,0.0,0 STARLINK-5465,1 54775U 22175T   23307.22728149  .00000779  00000-0  67024-4 0  9991,2 54775  53.2170 293.2562 0001523  92.9995 267.1171 15.08841903 48311,6917.875,95.437,540.793,538.686,0.0
54775.0,STARLINK-5465,PAYLOAD,2023-11-03 07:02:40,15.08847889,0.0001824,53.2167,292.9593,85.4415,274.6786,0.00016676,2.367e-05,0.0,0 STARLINK-5465,1 54775U 22175T   23307.29351949  .00002367  00000-0  16676-3 0  9999,2 54775  53.2167 292.9593 0001824  85.4415 274.6786 15.08847889 50480,6917.856,95.437,540.983,538.459,0.0
54775.0,STARLINK-5465,PAYLOAD,2023-11-03 22:56:31,15.08840883,0.0002016,53.2168,289.9858,88.1101,272.0122,0.00013708,1.894e-05,0.0,0 STARLINK-5465,1 54775U 22175T   23307.95592379  .00001894  00000-0  13708-3 0  9993,2 54775  53.2168 289.9858 0002016  88.1101 272.0122 15.08840883 50581,6917.878,95.437,541.137,538.348,0.0
54775.0,STARLINK-5465,PAYLOAD,2023-11-04 05:18:04,15.08843167,0.0001783,53.2166,288.7945,97.3596,262.7598,0.00017575,2.51e-05,0.0,0 STARLINK-5465,1 54775U 22175T   23308.22088220  .00002510  00000-0  17575-3 0  9991,2 54775  53.2166 288.7945 0001783  97.3596 262.7598 15.08843167 50629,6917.871,95.437,540.969,538.502,0.0
54775.0,STARLINK-5465,PAYLOAD,2023-11-04 16:25:46,15.0883761,0.0001615,53.2156,286.7135,99.4113,260.7062,6.1707e-05,6.94e-06,0.0,0 STARLINK-5465,1 54775U 22175T   23308.68456498  .00000694  00000-0  61707-4 0  9995,2 54775  53.2156 286.7135 0001615  99.4113 260.7062 15.08837610 48536,6917.888,95.438,540.87,538.635,0.0
54775.0,STARLINK-5465,PAYLOAD,2023-11-05 08:19:37,15.08853781,0.0001732,53.217,283.7383,95.4607,264.6583,0.00035363,5.347e-05,0.0,0 STARLINK-5465,1 54775U 22175T   23309.34695999  .00005347  00000-0  35363-3 0  9998,2 54775  53.2170 283.7383 0001732  95.4607 264.6583 15.08853781 48637,6917.838,95.437,540.901,538.505,0.0
54775.0,STARLINK-5465,PAYLOAD,2023-11-06 08:10:22,15.08887006,0.0001534,53.215,279.2783,99.3662,260.7503,0.00099247,0.00015563,0.0,0 STARLINK-5465,1 54775U 22175T   23310.34054327  .00015563  00000-0  99247-3 0  9996,2 54775  53.2150 279.2783 0001534  99.3662 260.7503 15.08887006 48785,6917.737,95.435,540.663,538.541,0.0
54775.0,STARLINK-5465,PAYLOAD,2023-11-07 04:50:25,15.08828836,0.000133,53.2174,275.4128,83.0152,277.0992,-0.00024883,-4.245e-05,0.0,0 STARLINK-5465,1 54775U 22175T   23311.20168173 -.00004245  00000-0 -24883-3 0  9998,2 54775  53.2174 275.4128 0001330  83.0152 277.0992 15.08828836 48914,6917.915,95.438,540.7,538.859,0.0
54775.0,STARLINK-5465,PAYLOAD,2023-11-07 14:22:44,15.08822756,0.0001171,53.2169,273.6292,81.7207,278.3918,2.9083e-05,1.75e-06,0.0,0 STARLINK-5465,1 54775U 22175T   23311.59912690  .00000175  00000-0  29083-4 0  9995,2 54775  53.2169 273.6292 0001171  81.7207 278.3918 15.08822756 51134,6917.933,95.439,540.608,538.988,0.0
54775.0,STARLINK-5465,PAYLOAD,2023-11-08 03:05:50,15.08829654,0.000134,53.2166,271.2513,91.7967,268.3178,0.00059055,9.12e-05,0.0,0 STARLINK-5465,1 54775U 22175T   23312.12905216  .00009120  00000-0  59055-3 0  9991,2 54775  53.2166 271.2513 0001340  91.7967 268.3178 15.08829654 49052,6917.912,95.438,540.704,538.85,0.0
54775.0,STARLINK-5465,PAYLOAD,2023-11-09 06:07:22,15.08866096,0.0001218,53.2157,266.1949,94.9992,265.1139,0.00081765,0.00012758,0.0,0 STARLINK-5465,1 54775U 22175T   23313.25512378  .00012758  00000-0  81765-3 0  9993,2 54775  53.2157 266.1949 0001218  94.9992 265.1139 15.08866096 49227,6917.801,95.436,540.508,538.823,0.0
54775.0,STARLINK-5465,PAYLOAD,2023-11-10 04:22:46,15.08852354,0.0001357,53.2157,262.0312,86.3702,273.7445,0.00034775,5.253e-05,0.0,0 STARLINK-5465,1 54775U 22175T   23314.18248492  .00005253  00000-0  34775-3 0  9990,2 54775  53.2157 262.0312 0001357  86.3702 273.7445 15.08852354 49366,6917.843,95.437,540.646,538.769,0.0
54775.0,STARLINK-5465,PAYLOAD,2023-11-10 13:55:05,15.08838165,0.0001285,53.2157,260.2473,95.1607,264.9531,0.00042556,6.491e-05,0.0,0 STARLINK-5465,1 54775U 22175T   23314.57992389  .00006491  00000-0  42556-3 0  9995,2 54775  53.2157 260.2473 0001285  95.1607 264.9531 15.08838165 51585,6917.886,95.438,540.64,538.862,0.0
54775.0,STARLINK-5465,PAYLOAD,2023-11-11 13:45:53,15.08839116,0.0001894,53.2161,255.7864,89.3788,270.7421,0.00034062,5.137e-05,0.0,0 STARLINK-5465,1 54775U 22175T   23315.57353084  .00005137  00000-0  34062-3 0  9998,2 54775  53.2161 255.7864 0001894  89.3788 270.7421 15.08839116 51731,6917.883,95.438,541.058,538.438,0.0
54775.0,STARLINK-5465,PAYLOAD,2023-11-12 02:28:58,15.08833297,0.0001623,53.2161,253.4071,95.4546,264.6631,9.6219e-05,1.243e-05,0.0,0 STARLINK-5465,1 54775U 22175T   23316.10345294  .00001243  00000-0  96219-4 0  9999,2 54775  53.2161 253.4071 0001623  95.4546 264.6631 15.08833297 49653,6917.901,95.438,540.889,538.643,0.0
54775.0,STARLINK-5465,PAYLOAD,2023-11-12 05:39:44,15.0883518,0.0001591,53.2167,252.8121,97.0167,263.1006,0.00020223,2.932e-05,0.0,0 STARLINK-5465,1 54775U 22175T   23316.23593393  .00002932  00000-0  20223-3 0  9995,2 54775  53.2167 252.8121 0001591  97.0167 263.1006 15.08835180 51835,6917.895,95.438,540.861,538.659,0.0
54775.0,STARLINK-5465,PAYLOAD,2023-11-13 02:19:45,15.08851464,0.0001635,53.2173,248.9465,94.7486,265.3693,0.00064928,0.00010064,0.0,0 STARLINK-5465,1 54775U 22175T   23317.09705222  .00010064  00000-0  64928-3 0  9991,2 54775  53.2173 248.9465 0001635  94.7486 265.3693 15.08851464 49809,6917.845,95.437,540.841,538.579,0.0
54775.0,STARLINK-5465,PAYLOAD,2023-11-13 05:30:31,15.0885866,0.0001653,53.2175,248.3508,96.6815,263.4366,0.00080366,0.00012532,0.0,0 STARLINK-5465,1 54775U 22175T   23317.22952995  .00012532  00000-0  80366-3 0  9993,2 54775  53.2175 248.3508 0001653  96.6815 263.4366 15.08858660 51983,6917.823,95.436,540.832,538.545,0.0
